*******************************************************************************
Revised: Jul 26, 2016             Moon / (Earth)                            301

PHYSICAL PROPERTIES:
Radius (IAU), km      = 1737.4          Mass, 10^20 kg        =  734.9
Radius (gravity), km  = 1738.0          Geometric albedo      =    0.12
Density, gm cm^-3     =    3.3437       GM, km^3/s^2          = 4902.80007
V(1,0)                =   +0.21         Surface gravity       =    1.62 m s^-2
Earth/Moon mass ratio = 81.3005691      Farside crust. thick. = ~80 - 90 km
Nearside crust. thick.= 58+-8 km        Heat flow, Apollo 17  = 2.2+-.5 mW/m^2
Heat flow, Apollo 15  = 3.1+-.6 mW/m^2  k2                    = 0.024059
Mean crustal density  = 2.97+-.07g/cm^3 Magnetometer moment   = 435+-15
Induced magnetic mom. = 4.23x10^22Gcm^3

DYNAMICAL CHARACTERISTICS:
Mean angular diameter = 31'05.2"        Orbit period          = 27.321582 d
Obliquity to orbit    = 6.67 deg        Eccentricity          = 0.05490
Semi-major axis, a    = 384400 km       Inclination           = 5.145 deg
Mean motion, rad/s    = 2.6616995x10^-6 Nodal period          = 6798.38 d
Apsidal period        = 3231.50 d       Mom. of inertia C/MR^2= 0.393142
beta (C-A/B), x10^-4  = 6.310213        gamma (B-A/C), x10^-4 = 2.277317
*******************************************************************************


*******************************************************************************
Ephemeris / WWW_USER Wed May  3 23:36:51 2017 Pasadena, USA      / Horizons
*******************************************************************************
Target body name: Moon (301)                      {source: DE431mx}
Center body name: Earth (399)                     {source: DE431mx}
Center-site name: (user defined site below)
*******************************************************************************
Start time      : A.D. 1970-Jan-01 00:00:00.0000 UT
Stop  time      : A.D. 1970-Jan-31 00:00:00.0000 UT
Step-size       : 1 minutes
*******************************************************************************
Target pole/equ : IAU_MOON                        {East-longitude +}
Target radii    : 1737.4 x 1737.4 x 1737.4 km     {Equator, meridian, pole}
Center geodetic : 237.584400,37.7816000,12.000000 {E-lon(deg),Lat(deg),Alt(km)}
Center cylindric: 237.584400,5056.80146,3893.6651 {E-lon(deg),Dxy(km),Dz(km)}
Center pole/equ : High-precision EOP model        {East-longitude +}
Center radii    : 6378.1 x 6378.1 x 6356.8 km     {Equator, meridian, pole}
Target primary  : Earth
Vis. interferer : MOON (R_eq= 1737.400) km        {source: DE431mx}
Rel. light bend : Sun, EARTH                      {source: DE431mx}
Rel. lght bnd GM: 1.3271E+11, 3.9860E+05 km^3/s^2
Atmos refraction: NO (AIRLESS)
RA format       : DEG
Time format     : CAL
RTS-only print  : TVH
RTS elevation   : 0. degrees
EOP file        : eop.170503.p170725
EOP coverage    : DATA-BASED 1962-JAN-20 TO 2017-MAY-03. PREDICTS-> 2017-JUL-24
Units conversion: 1 au= 149597870.700 km, c= 299792.458 km/s, 1 day= 86400.0 s
Table format    : Comma Separated Values (spreadsheet)
*****************************************************************************************************************************************************************
Date__(UT)__HR:MN, , ,R.A._(ICRF/J2000.0), DEC_(ICRF/J2000.0),  APmag, S-brt,   Illu%, Ang-diam, Obsrv-lon,Obsrv-lat, Solar-lon,Solar-lat, N.Pole-RA, N.Pole-DC,
*****************************************************************************************************************************************************************
$$SOE
1970-Jan-16 20:28,*,r, 50.92204, 22.80468, -11.02,  4.68,  73.242, 1817.235,   7.05902, -5.53342,  69.33958, -1.15965, 271.14965,  68.05087,
1970-Jan-17 04:02, ,t, 54.29220, 24.26969, -11.13,  4.62,  75.524, 1840.373,   6.26889, -6.23610,  65.51040, -1.15597, 271.14927,  68.05304,
1970-Jan-17 11:42, ,s, 57.77261, 24.81467, -11.18,  4.57,  77.655, 1805.576,   5.28684, -6.08532,  61.63112, -1.15215, 271.14839,  68.05517,
1970-Jan-17 21:06,*,r, 64.50112, 25.80331, -11.33,  4.46,  81.694, 1799.262,   6.31891, -5.91562,  56.87543, -1.14731, 271.14665,  68.05766,
1970-Jan-18 04:52, ,t, 68.11618, 26.93425, -11.44,  4.40,  83.670, 1823.276,   5.45111, -6.52256,  52.94659, -1.14315, 271.14469,  68.05960,
1970-Jan-18 12:44, ,s, 71.82087, 27.01482, -11.48,  4.35,  85.536, 1789.836,   4.43382, -6.15557,  48.96760, -1.13878, 271.14225,  68.06144,
1970-Jan-18 21:51,*,r, 78.48303, 27.45685, -11.63,  4.24,  88.764, 1785.260,   5.39831, -5.98406,  44.35687, -1.13351, 271.13892,  68.06340,
1970-Jan-19 05:44, ,t, 82.22887, 28.16672, -11.74,  4.18,  90.335, 1810.100,   4.44429, -6.46057,  40.37029, -1.12874, 271.13564,  68.06492,
1970-Jan-19 13:40, ,s, 86.00432, 27.76435, -11.78,  4.12,  91.833, 1778.141,   3.42011, -5.90682,  36.35877, -1.12375, 271.13201,  68.06628,
1970-Jan-19 22:42,*,r, 92.60321, 27.67232, -11.92,  4.00,  94.232, 1774.913,   4.32982, -5.74625,  31.79140, -1.11780, 271.12754,  68.06761,
1970-Jan-20 06:37, ,t, 96.32891, 27.91534, -12.02,  3.94,  95.338, 1800.572,   3.29006, -6.06234,  27.78892, -1.11234, 271.12338,  68.06858,
1970-Jan-20 14:29,N,s, 99.99830, 27.06698, -12.07,  3.87,  96.388, 1770.043,   2.27751, -5.36566,  23.81194, -1.10669, 271.11907,  68.06936,
1970-Jan-20 23:39,*,r,106.53953, 26.45748, -12.20,  3.75,  97.933, 1768.004,   3.13910, -5.22013,  19.17799, -1.09982, 271.11389,  68.07002,
1970-Jan-21 07:27, ,t,110.06791, 26.24089, -12.31,  3.69,  98.547, 1794.355,   2.03595, -5.35614,  15.23507, -1.09372, 271.10940,  68.07039,
1970-Jan-21 15:10,C,s,113.49325, 25.03067, -12.35,  3.61,  99.104, 1765.211,   1.03192, -4.56597,  11.33439, -1.08745, 271.10494,  68.07057,
1970-Jan-22 00:39,*,r,119.98006, 23.92229, -12.48,  3.49,  99.747, 1764.217,   1.84802, -4.42954,   6.54077, -1.07945, 271.09948,  68.07056,
1970-Jan-22 08:15, ,t,123.20894, 23.29938, -12.56,  3.44,  99.887, 1791.119,   0.70685, -4.38092,   2.69916, -1.07279, 271.09517,  68.07036,
1970-Jan-22 15:45,*,s,126.31927, 21.83328, -12.56,  3.41,  99.948, 1763.282, 359.70994, -3.54336, 358.90811, -1.06600, 271.09101,  68.07002,
1970-Jan-23 01:40,C,r,132.75410, 20.25787, -12.45,  3.52,  99.628, 1763.426,   0.48290, -3.40844, 353.89542, -1.05673, 271.08570,  68.06934,
1970-Jan-23 09:01, ,t,135.65216, 19.30429, -12.42,  3.58,  99.330, 1790.684, 359.33202, -3.18424, 350.18004, -1.04963, 271.08195,  68.06869,
1970-Jan-23 16:14,*,s,138.42785, 17.69561, -12.32,  3.64,  98.930, 1764.278, 358.34058, -2.34261, 346.53196, -1.04250, 271.07842,  68.06794,
1970-Jan-24 02:41,A,r,144.85272, 15.69133, -12.17,  3.78,  97.591, 1765.700, 359.07777, -2.19995, 341.24917, -1.03187, 271.07365,  68.06666,
1970-Jan-24 09:43, ,t,147.43051, 14.49528, -12.14,  3.83,  96.904, 1793.046, 357.95314, -1.82431, 337.69340, -1.02454, 271.07068,  68.06569,
1970-Jan-24 16:39,*,s,149.91339, 12.83496, -12.04,  3.89,  96.104, 1768.254, 356.96016, -1.01016, 334.18801, -1.01718, 271.06795,  68.06466,
1970-Jan-25 03:40, ,r,156.38232, 10.45537, -11.88,  4.03,  93.707, 1771.110, 357.67756, -0.85477, 328.61771, -1.00524, 271.06404,  68.06287,
1970-Jan-25 10:24, ,t,158.70629,  9.08819, -11.85,  4.08,  92.681, 1798.396, 356.60058, -0.35507, 325.21286, -0.99781, 271.06192,  68.06171,
1970-Jan-25 17:02,*,s,160.95394,  7.45242, -11.76,  4.13,  91.558, 1775.411, 355.61304,  0.40356, 321.85835, -0.99039, 271.06002,  68.06052,
1970-Jan-26 04:39, ,r,167.56401,  4.75705, -11.59,  4.26,  88.088, 1780.152, 356.33617,  0.57081, 315.98307, -0.97719, 271.05719,  68.05833,
1970-Jan-26 11:03, ,t,169.68940,  3.29306, -11.56,  4.31,  86.784, 1807.059, 355.33059,  1.15994, 312.74580, -0.96983, 271.05588,  68.05709,
1970-Jan-26 17:23,*,s,171.76511,  1.73880, -11.47,  4.35,  85.421, 1786.210, 354.35400,  1.84253, 309.54197, -0.96248, 271.05477,  68.05583,
1970-Jan-27 05:38, ,r,178.65146, -1.20726, -11.29,  4.49,  80.885, 1793.164, 355.11958,  2.01724, 303.34420, -0.94813, 271.05312,  68.05334,
1970-Jan-27 11:43, ,t,180.64978, -2.70951, -11.26,  4.53,  79.365, 1819.446, 354.19551,  2.66352, 300.26594, -0.94094, 271.05253,  68.05208,
1970-Jan-27 17:45,*,s,182.62185, -4.13803, -11.18,  4.57,  77.841, 1800.860, 353.24615,  3.25135, 297.21266, -0.93377, 271.05210,  68.05082,
1970-Jan-28 06:38, ,r,189.94192, -7.24704, -10.97,  4.70,  72.288, 1810.499, 354.10313,  3.42209, 290.69170, -0.91838, 271.05168,  68.04811,
1970-Jan-28 12:23, ,t,191.87239, -8.72265, -10.94,  4.74,  70.629, 1835.892, 353.27254,  4.08765, 287.78080, -0.91148, 271.05171,  68.04689,
1970-Jan-28 18:07,*,s,193.79860, -9.98838, -10.86,  4.78,  69.020, 1819.824, 352.36360,  4.56728, 284.87801, -0.90459, 271.05186,  68.04567,
1970-Jan-29 07:40, ,r,201.76264,-13.15231, -10.62,  4.92,  62.535, 1832.313, 353.36872,  4.71930, 278.01628, -0.88824, 271.05272,  68.04277,
1970-Jan-29 13:06, ,t,203.68795,-14.54199, -10.58,  4.96,  60.814, 1856.592, 352.63106,  5.36929, 275.26428, -0.88167, 271.05326,  68.04160,
1970-Jan-29 18:32,*,s,205.62557,-15.60856, -10.50,  4.99,  59.185, 1843.000, 351.78179,  5.72628, 272.51197, -0.87509, 271.05391,  68.04043,
1970-Jan-30 08:45, ,r,214.46047,-18.66367, -10.23,  5.15,  51.929, 1858.414, 352.99854,  5.83775, 265.30877, -0.85788, 271.05613,  68.03736,
1970-Jan-30 13:53,A,t,216.43460,-19.90150, -10.18,  5.18,  50.228, 1881.384, 352.34825,  6.43565, 262.70728, -0.85166, 271.05712,  68.03626,
1970-Jan-30 19:01,*,s,218.42862,-20.72881, -10.10,  5.22,  48.640, 1870.088, 351.57614,  6.65680, 260.10549, -0.84545, 271.05821,  68.03515,
